start=new Date('2022-08-07T00:00:00.000Z').valueOf();
sats=[{"INCLINATION":"53.0546","APOAPSIS":"548.471","GP_ID":"209692464","DECAY_DATE":null,"TLE_LINE1":"1 45587U 20025BJ  22218.23579343  .00001003  00000-0  86244-4 0  9991","SEMIMAJOR_AXIS":"6925.369","CLASSIFICATION_TYPE":"U","MEAN_ANOMALY":"287.8681","RA_OF_ASC_NODE":"203.9682","OBJECT_TYPE":"PAYLOAD","TIME_SYSTEM":"UTC","OBJECT_NAME":"STARLINK-1349","TLE_LINE2":"2 45587  53.0546 203.9682 0001786  72.2502 287.8681 15.06393408127845","COUNTRY_CODE":"US","MEAN_MOTION":"15.06393408","EPHEMERIS_TYPE":"0","SITE":"AFETR","EPOCH":"2022-08-06T05:39:32.552352","ARG_OF_PERICENTER":"72.2502","REV_AT_EPOCH":"12784","OBJECT_ID":"2020-025BJ","FILE":"3530579","LAUNCH_DATE":"2020-04-22","ELEMENT_SET_NO":"999","PERIOD":"95.593","PERIAPSIS":"545.997","ECCENTRICITY":"0.00017860","MEAN_MOTION_DOT":"0.00001003","CENTER_NAME":"EARTH","BSTAR":"0.00008624400000","RCS_SIZE":"LARGE","MEAN_MOTION_DDOT":"0.0000000000000","NORAD_CAT_ID":"45587","MEAN_ELEMENT_THEORY":"SGP4","REF_FRAME":"TEME"},{"COUNTRY_CODE":"US","MEAN_MOTION":"15.06398593","TLE_LINE2":"2 45588  53.0524 201.9866 0001464  78.8212 281.2941 15.06398593127901","RA_OF_ASC_NODE":"201.9866","OBJECT_TYPE":"PAYLOAD","TIME_SYSTEM":"UTC","OBJECT_NAME":"STARLINK-1360","MEAN_ANOMALY":"281.2941","CLASSIFICATION_TYPE":"U","SEMIMAJOR_AXIS":"6925.353","TLE_LINE1":"1 45588U 20025BK  22218.67808200 -.00000726  00000-0 -29880-4 0  9993","DECAY_DATE":null,"APOAPSIS":"548.232","INCLINATION":"53.0524","GP_ID":"209722317","REF_FRAME":"TEME","MEAN_ELEMENT_THEORY":"SGP4","NORAD_CAT_ID":"45588","BSTAR":"-0.00002988000000","CENTER_NAME":"EARTH","MEAN_MOTION_DOT":"-0.00000726","MEAN_MOTION_DDOT":"0.0000000000000","RCS_SIZE":"LARGE","FILE":"3530813","ECCENTRICITY":"0.00014640","PERIAPSIS":"546.204","ELEMENT_SET_NO":"999","LAUNCH_DATE":"2020-04-22","PERIOD":"95.592","OBJECT_ID":"2020-025BK","REV_AT_EPOCH":"12790","ARG_OF_PERICENTER":"78.8212","EPOCH":"2022-08-06T16:16:26.284800","EPHEMERIS_TYPE":"0","SITE":"AFETR"},{"TLE_LINE1":"1 45589U 20025BL  22218.67439748  .00001235  00000-0  10179-3 0  9995","DECAY_DATE":null,"GP_ID":"209722567","INCLINATION":"53.0539","APOAPSIS":"548.218","MEAN_ANOMALY":"287.3433","SEMIMAJOR_AXIS":"6925.372","CLASSIFICATION_TYPE":"U","OBJECT_NAME":"STARLINK-1364","OBJECT_TYPE":"PAYLOAD","RA_OF_ASC_NODE":"201.9988","TIME_SYSTEM":"UTC","MEAN_MOTION":"15.06392474","COUNTRY_CODE":"US","TLE_LINE2":"2 45589  53.0539 201.9988 0001417  72.7711 287.3433 15.06392474127903","SITE":"AFETR","EPHEMERIS_TYPE":"0","EPOCH":"2022-08-06T16:11:07.942272","ARG_OF_PERICENTER":"72.7711","LAUNCH_DATE":"2020-04-22","PERIOD":"95.593","ELEMENT_SET_NO":"999","ECCENTRICITY":"0.00014170","PERIAPSIS":"546.255","FILE":"3530813","REV_AT_EPOCH":"12790","OBJECT_ID":"2020-025BL","NORAD_CAT_ID":"45589","REF_FRAME":"TEME","MEAN_ELEMENT_THEORY":"SGP4","MEAN_MOTION_DDOT":"0.0000000000000","RCS_SIZE":"LARGE","MEAN_MOTION_DOT":"0.00001235","CENTER_NAME":"EARTH","BSTAR":"0.00010179000000"},{"MEAN_ELEMENT_THEORY":"SGP4","REF_FRAME":"TEME","NORAD_CAT_ID":"45590","RCS_SIZE":"LARGE","MEAN_MOTION_DDOT":"0.0000000000000","BSTAR":"0.00009100300000","CENTER_NAME":"EARTH","MEAN_MOTION_DOT":"0.00001074","PERIAPSIS":"546.066","ECCENTRICITY":"0.00016900","PERIOD":"95.593","LAUNCH_DATE":"2020-04-22","ELEMENT_SET_NO":"999","FILE":"3530813","OBJECT_ID":"2020-025BM","REV_AT_EPOCH":"12751","ARG_OF_PERICENTER":"65.5465","EPOCH":"2022-08-06T18:09:14.121216","SITE":"AFETR","EPHEMERIS_TYPE":"0","MEAN_MOTION":"15.06392617","COUNTRY_CODE":"US","TLE_LINE2":"2 45590  53.0523 231.6379 0001690  65.5465 294.5700 15.06392617127514","OBJECT_NAME":"STARLINK-1365","RA_OF_ASC_NODE":"231.6379","OBJECT_TYPE":"PAYLOAD","TIME_SYSTEM":"UTC","MEAN_ANOMALY":"294.5700","CLASSIFICATION_TYPE":"U","SEMIMAJOR_AXIS":"6925.371","DECAY_DATE":null,"TLE_LINE1":"1 45590U 20025BM  22218.75641344  .00001074  00000-0  91003-4 0  9990","GP_ID":"209723817","APOAPSIS":"548.407","INCLINATION":"53.0523"},{"ARG_OF_PERICENTER":"67.2433","EPOCH":"2022-08-06T15:56:31.876512","EPHEMERIS_TYPE":"0","SITE":"AFETR","CENTER_NAME":"EARTH","BSTAR":"0.00001055200000","MEAN_MOTION_DOT":"-0.00000124","RCS_SIZE":"LARGE","MEAN_MOTION_DDOT":"0.0000000000000","REF_FRAME":"TEME","MEAN_ELEMENT_THEORY":"SGP4","NORAD_CAT_ID":"45658","OBJECT_ID":"2020-035B","REV_AT_EPOCH":"12113","FILE":"3530813","PERIAPSIS":"546.010","ECCENTRICITY":"0.00017330","LAUNCH_DATE":"2020-06-04","PERIOD":"95.592","ELEMENT_SET_NO":"999","CLASSIFICATION_TYPE":"U","SEMIMAJOR_AXIS":"6925.346","MEAN_ANOMALY":"292.8739","APOAPSIS":"548.411","INCLINATION":"53.0539","GP_ID":"209722572","DECAY_DATE":null,"TLE_LINE1":"1 45658U 20035B   22218.66425783 -.00000124  00000-0  10552-4 0  9999","TLE_LINE2":"2 45658  53.0539 192.0357 0001733  67.2433 292.8739 15.06400993121136","COUNTRY_CODE":"US","MEAN_MOTION":"15.06400993","OBJECT_TYPE":"PAYLOAD","TIME_SYSTEM":"UTC","RA_OF_ASC_NODE":"192.0357","OBJECT_NAME":"STARLINK-1441"},{"REV_AT_EPOCH":"12112","OBJECT_ID":"2020-035C","FILE":"3530813","PERIOD":"95.592","LAUNCH_DATE":"2020-06-04","ELEMENT_SET_NO":"999","PERIAPSIS":"546.246","ECCENTRICITY":"0.00014110","MEAN_MOTION_DOT":"0.00001625","CENTER_NAME":"EARTH","BSTAR":"0.00012796000000","MEAN_MOTION_DDOT":"0.0000000000000","RCS_SIZE":"LARGE","NORAD_CAT_ID":"45659","MEAN_ELEMENT_THEORY":"SGP4","REF_FRAME":"TEME","EPHEMERIS_TYPE":"0","SITE":"AFETR","EPOCH":"2022-08-06T16:00:28.684224","ARG_OF_PERICENTER":"79.9593","TIME_SYSTEM":"UTC","OBJECT_TYPE":"PAYLOAD","RA_OF_ASC_NODE":"192.0419","OBJECT_NAME":"STARLINK-1442","TLE_LINE2":"2 45659  53.0546 192.0419 0001411  79.9593 280.1556 15.06396752121127","COUNTRY_CODE":"US","MEAN_MOTION":"15.06396752","INCLINATION":"53.0546","APOAPSIS":"548.201","GP_ID":"209723822","TLE_LINE1":"1 45659U 20035C   22218.66699866  .00001625  00000-0  12796-3 0  9992","DECAY_DATE":null,"SEMIMAJOR_AXIS":"6925.359","CLASSIFICATION_TYPE":"U","MEAN_ANOMALY":"280.1556"},{"CLASSIFICATION_TYPE":"U","SEMIMAJOR_AXIS":"6925.323","MEAN_ANOMALY":"289.1083","APOAPSIS":"548.465","INCLINATION":"53.0539","GP_ID":"209691970","TLE_LINE1":"1 45660U 20035D   22218.21089878  .00001279  00000-0  10471-3 0  9994","DECAY_DATE":null,"TLE_LINE2":"2 45660  53.0539 194.0801 0001843  71.0106 289.1083 15.06408268121063","COUNTRY_CODE":"US","MEAN_MOTION":"15.06408268","TIME_SYSTEM":"UTC","OBJECT_TYPE":"PAYLOAD","RA_OF_ASC_NODE":"194.0801","OBJECT_NAME":"STARLINK-1443","ARG_OF_PERICENTER":"71.0106","EPOCH":"2022-08-06T05:03:41.654592","EPHEMERIS_TYPE":"0","SITE":"AFETR","CENTER_NAME":"EARTH","BSTAR":"0.00010471000000","MEAN_MOTION_DOT":"0.00001279","RCS_SIZE":"LARGE","MEAN_MOTION_DDOT":"0.0000000000000","REF_FRAME":"TEME","MEAN_ELEMENT_THEORY":"SGP4","NORAD_CAT_ID":"45660","OBJECT_ID":"2020-035D","REV_AT_EPOCH":"12106","FILE":"3530579","ECCENTRICITY":"0.00018430","PERIAPSIS":"545.912","LAUNCH_DATE":"2020-06-04","PERIOD":"95.592","ELEMENT_SET_NO":"999"},{"TLE_LINE2":"2 45661  53.0549 191.0234 0001859  72.8658 287.2535 15.06400030121161","MEAN_MOTION":"15.06400030","COUNTRY_CODE":"US","OBJECT_NAME":"STARLINK-1444","OBJECT_TYPE":"PAYLOAD","TIME_SYSTEM":"UTC","RA_OF_ASC_NODE":"191.0234","CLASSIFICATION_TYPE":"U","SEMIMAJOR_AXIS":"6925.348","MEAN_ANOMALY":"287.2535","GP_ID":"209722822","APOAPSIS":"548.501","INCLINATION":"53.0549","TLE_LINE1":"1 45661U 20035E   22218.89279107 -.00000102  00000-0  12089-4 0  9998","DECAY_DATE":null,"MEAN_MOTION_DDOT":"0.0000000000000","RCS_SIZE":"LARGE","BSTAR":"0.00001208900000","CENTER_NAME":"EARTH","MEAN_MOTION_DOT":"-0.00000102","REF_FRAME":"TEME","MEAN_ELEMENT_THEORY":"SGP4","NORAD_CAT_ID":"45661","OBJECT_ID":"2020-035E","REV_AT_EPOCH":"12116","PERIAPSIS":"545.926","ECCENTRICITY":"0.00018590","LAUNCH_DATE":"2020-06-04","PERIOD":"95.592","ELEMENT_SET_NO":"999","FILE":"3530813","ARG_OF_PERICENTER":"72.8658","EPOCH":"2022-08-06T21:25:37.148448","SITE":"AFETR","EPHEMERIS_TYPE":"0"},{"TLE_LINE2":"2 45662  53.0552 190.9428 0001831  59.2468 300.8701 15.06393638121169","MEAN_MOTION":"15.06393638","COUNTRY_CODE":"US","OBJECT_NAME":"STARLINK-1445","OBJECT_TYPE":"PAYLOAD","RA_OF_ASC_NODE":"190.9428","TIME_SYSTEM":"UTC","CLASSIFICATION_TYPE":"U","SEMIMAJOR_AXIS":"6925.368","MEAN_ANOMALY":"300.8701","GP_ID":"209723071","APOAPSIS":"548.501","INCLINATION":"53.0552","DECAY_DATE":null,"TLE_LINE1":"1 45662U 20035F   22218.90753545 -.00000314  00000-0 -21598-5 0  9996","RCS_SIZE":"LARGE","MEAN_MOTION_DDOT":"0.0000000000000","BSTAR":"-0.00000215980000","CENTER_NAME":"EARTH","MEAN_MOTION_DOT":"-0.00000314","REF_FRAME":"TEME","MEAN_ELEMENT_THEORY":"SGP4","NORAD_CAT_ID":"45662","OBJECT_ID":"2020-035F","REV_AT_EPOCH":"12116","ECCENTRICITY":"0.00018310","PERIAPSIS":"545.965","LAUNCH_DATE":"2020-06-04","PERIOD":"95.593","ELEMENT_SET_NO":"999","FILE":"3530813","ARG_OF_PERICENTER":"59.2468","EPOCH":"2022-08-06T21:46:51.062880","SITE":"AFETR","EPHEMERIS_TYPE":"0"},{"APOAPSIS":"548.506","INCLINATION":"53.0542","GP_ID":"209723322","DECAY_DATE":null,"TLE_LINE1":"1 45663U 20035G   22218.91121892 -.00000056  00000-0  15139-4 0  9997","CLASSIFICATION_TYPE":"U","SEMIMAJOR_AXIS":"6925.353","MEAN_ANOMALY":"294.2088","TIME_SYSTEM":"UTC","OBJECT_TYPE":"PAYLOAD","RA_OF_ASC_NODE":"190.9204","OBJECT_NAME":"STARLINK-1446","TLE_LINE2":"2 45663  53.0542 190.9204 0001860  65.9096 294.2088 15.06398684121164","COUNTRY_CODE":"US","MEAN_MOTION":"15.06398684","EPHEMERIS_TYPE":"0","SITE":"AFETR","ARG_OF_PERICENTER":"65.9096","EPOCH":"2022-08-06T21:52:09.314688","OBJECT_ID":"2020-035G","REV_AT_EPOCH":"12116","FILE":"3530813","ECCENTRICITY":"0.00018600","PERIAPSIS":"545.929","PERIOD":"95.592","LAUNCH_DATE":"2020-06-04","ELEMENT_SET_NO":"999","BSTAR":"0.00001513900000","CENTER_NAME":"EARTH","MEAN_MOTION_DOT":"-0.00000056","RCS_SIZE":"LARGE","MEAN_MOTION_DDOT":"0.0000000000000","MEAN_ELEMENT_THEORY":"SGP4","REF_FRAME":"TEME","NORAD_CAT_ID":"45663"}];
